OBJECT_NAME,OBJECT_ID,EPOCH,MEAN_MOTION,ECCENTRICITY,INCLINATION,RA_OF_ASC_NODE,ARG_OF_PERICENTER,MEAN_ANOMALY,EPHEMERIS_TYPE,CLASSIFICATION_TYPE,NORAD_CAT_ID,ELEMENT_SET_NO,REV_AT_EPOCH,BSTAR,MEAN_MOTION_DOT,MEAN_MOTION_DDOT
GALAXY 3C (G-3C),2002-030A,2026-06-03T21:42:36.518112,1.00271986,.0001979,3.6963,78.1546,28.1667,16.8376,0,U,27445,999,4636,0,-.142E-5,0
INTELSAT 906 (IS-906),2002-041A,2026-06-03T22:57:38.778048,1.00271308,.0004746,5.7702,73.0820,356.2915,231.5963,0,U,27513,999,8689,0,.23E-6,0
NIMIQ 2,2002-062A,2026-06-03T14:55:28.720416,1.00272273,.00060214,9.4151,57.0443,12.1723,297.5396,0,U,27632,999,4404,0,-.61E-6,0
USA 167,2003-008A,2026-06-03T13:00:07.066944,1.00274801,.00042298,10.9345,43.5302,318.4854,323.2599,0,U,27691,999,663,0,.1E-6,0
USA 169 (MILSTAR-2 4),2003-012A,2026-06-03T22:53:08.162880,1.00271808,.0101424,12.3296,29.9489,8.7050,349.1837,0,U,27711,999,3281,0,-.237E-5,0
ASIASAT 4,2003-014A,2026-06-03T16:01:07.400064,1.00271429,.00028473,4.6710,75.9122,1.5460,202.4798,0,U,27718,999,4516,0,-.212E-5,0
HELLAS-SAT 2,2003-020A,2026-06-03T23:49:31.630080,1.00272321,.0002894,7.3221,68.0407,359.0239,172.7588,0,U,27811,999,4271,0,-.74E-6,0
THURAYA-2,2003-026A,2026-06-03T18:32:24.448416,1.00269719,.00036175,8.8206,32.0385,1.5038,180.7824,0,U,27825,999,8421,0,.133E-5,0
OPTUS C1,2003-028B,2026-06-03T14:33:38.422080,1.00271091,.0005945,6.8560,69.5733,359.0038,197.6191,0,U,27831,999,5292,0,-.142E-5,0
USA 170,2003-040A,2026-06-03T20:34:03.568800,1.00276751,.0001951,10.4722,48.0737,25.2319,151.7571,0,U,27875,999,3286,0,.134E-5,0
GALAXY 13 (HORIZONS-1),2003-044A,2026-06-04T02:34:55.786368,1.00271336,.0002063,1.3864,84.0158,341.5871,75.6678,0,U,27954,999,4644,0,.144E-5,0
YAMAL 202,2003-053A,2026-06-03T14:22:57.779904,1.00272577,.00032216,6.3108,71.0995,342.3713,217.9005,0,U,28089,999,8256,0,-.7E-6,0
UFO 11 (USA 174),2003-057A,2026-06-03T17:23:12.189696,1.00273609,.00023688,8.9387,33.8971,37.7432,156.8643,0,U,28117,999,8231,0,-.96E-6,0
USA 176 (DSP 22),2004-004A,2026-06-04T01:19:38.359776,1.00410479,.0001205,12.0445,26.1674,314.7961,237.8270,0,U,28158,999,3280,0,-.29E-5,0
ABS-4 (MOBISAT-1),2004-007A,2026-06-03T20:44:25.076832,1.00270189,.00050926,6.0092,72.1665,357.8941,194.3313,0,U,28184,999,5220,0,.49E-6,0
INTELSAT 10-02,2004-022A,2026-06-04T01:34:36.058368,1.00270913,.0000277,0.0110,351.1008,123.8110,160.2515,0,U,28358,999,8042,0,.1E-7,0
ANIK F2,2004-027A,2026-06-03T23:20:40.372800,1.00272419,.000459,3.2526,79.6223,359.5132,52.3316,0,U,28378,999,4113,0,-.39E-6,0
AMC-15,2004-041A,2026-06-04T03:36:14.768352,1.00271778,.0002484,0.0231,313.7011,117.5433,130.3692,0,U,28446,999,7917,0,-.77E-6,0
NSS-10,2005-003A,2026-06-04T03:06:48.055968,1.00270663,.0003132,6.4169,70.6121,1.3829,189.8291,0,U,28526,999,5302,0,-.242E-5,0
INMARSAT 4-F1,2005-009A,2026-06-03T21:17:53.888064,1.00272499,.000302,5.1502,42.7333,33.1390,314.0613,0,U,28628,999,7753,0,.43E-6,0
DIRECTV 8,2005-019A,2026-06-04T04:23:38.772096,1.00271337,.0003158,0.0022,2.5841,76.3808,120.5375,0,U,28659,999,7694,0,.13E-6,0
GALAXY 28 (G-28),2005-022A,2026-06-04T03:09:59.139072,1.00269229,.0003233,3.2649,79.0912,0.1428,193.7437,0,U,28702,999,5184,0,-.189E-5,0
THAICOM 4,2005-028A,2026-06-03T22:43:46.562016,1.00271606,.0002136,0.2111,86.1239,345.3236,281.4070,0,U,28786,999,5211,0,-.35E-5,0
ANIK F1R,2005-036A,2026-06-03T21:39:06.852096,1.00272995,.0004511,4.2787,76.7428,359.2588,33.8442,0,U,28868,999,4632,0,-.64E-6,0
SYRACUSE 3A,2005-041B,2026-06-04T01:16:38.671104,1.00268829,.0003154,4.6103,75.9958,333.6236,268.7065,0,U,28885,999,7561,0,.14E-5,0
INMARSAT 4-F2,2005-044A,2026-06-03T22:42:51.767136,1.00270607,.0003276,5.0778,43.7191,29.7378,303.1482,0,U,28899,999,7538,0,-.25E-5,0
METEOSAT-9 (MSG-2),2005-049B,2026-06-03T20:40:02.996256,1.00267174,.0002358,9.3308,54.2974,37.5703,156.1962,0,U,28912,999,686,0,.133E-5,0
EUTELSAT 174A,2005-052A,2026-06-04T02:24:41.768352,1.00269383,.0006593,4.1863,76.6862,357.1637,28.8979,0,U,28924,999,5220,0,.2E-6,0
ECHOSTAR 10,2006-003A,2026-06-04T03:36:38.766816,1.00272258,.0001473,0.0182,333.5566,95.9528,127.0644,0,U,28935,999,7433,0,-.43E-6,0
SPAINSAT,2006-007A,2026-06-03T09:13:37.901280,1.00271153,.0005107,0.5272,86.7808,346.3058,286.9735,0,U,28945,999,7408,0,-.205E-5,0
JCSAT-5A,2006-010A,2026-06-04T04:14:38.785056,1.00272890,.0002194,1.0755,84.3617,0.7134,3.2628,0,U,29045,999,7364,0,-.316E-5,0
ASTRA 1KR,2006-012A,2026-06-04T03:23:05.383392,1.00272761,.0003728,0.4399,83.1948,349.0765,250.0907,0,U,29055,999,4556,0,.131E-5,0
