GALAXY 3C (G-3C)        
1 27445U 02030A   26154.90458933 -.00000142  00000+0  00000+0 0  9992
2 27445   3.6963  78.1546 0001979  28.1667  16.8376  1.00271986 46362
INTELSAT 906 (IS-906)   
1 27513U 02041A   26154.95669882  .00000023  00000+0  00000+0 0  9999
2 27513   5.7702  73.0820 0004746 356.2915 231.5963  1.00271308 86895
NIMIQ 2                 
1 27632U 02062A   26154.62186019 -.00000061  00000+0  00000+0 0  9997
2 27632   9.4151  57.0443 0006021  12.1723 297.5396  1.00272273 44047
USA 167                 
1 27691U 03008A   26154.54174846  .00000010  00000+0  00000+0 0  9992
2 27691  10.9345  43.5302 0004229 318.4854 323.2599  1.00274801  6637
USA 169 (MILSTAR-2 4)   
1 27711U 03012A   26154.95356670 -.00000237  00000+0  00000+0 0  9994
2 27711  12.3296  29.9489 0101424   8.7050 349.1837  1.00271808 32812
ASIASAT 4               
1 27718U 03014A   26154.66744676 -.00000212  00000+0  00000+0 0  9991
2 27718   4.6710  75.9122 0002847   1.5460 202.4798  1.00271429 45162
HELLAS-SAT 2            
1 27811U 03020A   26154.99272720 -.00000074  00000+0  00000+0 0  9990
2 27811   7.3221  68.0407 0002894 359.0239 172.7588  1.00272321 42715
THURAYA-2               
1 27825U 03026A   26154.77250519  .00000133  00000+0  00000+0 0  9994
2 27825   8.8206  32.0385 0003617   1.5038 180.7824  1.00269719 84215
OPTUS C1                
1 27831U 03028B   26154.60669470 -.00000142  00000+0  00000+0 0  9996
2 27831   6.8560  69.5733 0005945 359.0038 197.6191  1.00271091 52925
USA 170                 
1 27875U 03040A   26154.85698575  .00000134  00000+0  00000+0 0  9993
2 27875  10.4722  48.0737 0001951  25.2319 151.7571  1.00276751 32869
GALAXY 13 (HORIZONS-1)  
1 27954U 03044A   26155.10759012  .00000144  00000+0  00000+0 0  9999
2 27954   1.3864  84.0158 0002063 341.5871  75.6678  1.00271336 46447
YAMAL 202               
1 28089U 03053A   26154.59927986 -.00000070  00000+0  00000+0 0  9997
2 28089   6.3108  71.0995 0003221 342.3713 217.9005  1.00272577 82565
UFO 11 (USA 174)        
1 28117U 03057A   26154.72444664 -.00000096  00000+0  00000+0 0  9993
2 28117   8.9387  33.8971 0002368  37.7432 156.8643  1.00273609 82317
USA 176 (DSP 22)        
1 28158U 04004A   26155.05530509 -.00000290  00000+0  00000+0 0  9998
2 28158  12.0445  26.1674 0001205 314.7961 237.8270  1.00410479 32805
ABS-4 (MOBISAT-1)       
1 28184U 04007A   26154.86417913  .00000049  00000+0  00000+0 0  9992
2 28184   6.0092  72.1665 0005092 357.8941 194.3313  1.00270189 52203
INTELSAT 10-02          
1 28358U 04022A   26155.06569512  .00000001  00000+0  00000+0 0  9996
2 28358   0.0110 351.1008 0000277 123.8110 160.2515  1.00270913 80427
ANIK F2                 
1 28378U 04027A   26154.97268950 -.00000039  00000+0  00000+0 0  9996
2 28378   3.2526  79.6223 0004590 359.5132  52.3316  1.00272419 41138
AMC-15                  
1 28446U 04041A   26155.15017093 -.00000077  00000+0  00000+0 0  9991
2 28446   0.0231 313.7011 0002484 117.5433 130.3692  1.00271778 79171
NSS-10                  
1 28526U 05003A   26155.12972287 -.00000242  00000+0  00000+0 0  9995
2 28526   6.4169  70.6121 0003132   1.3829 189.8291  1.00270663 53023
INMARSAT 4-F1           
1 28628U 05009A   26154.88742926  .00000043  00000+0  00000+0 0  9999
2 28628   5.1502  42.7333 0003020  33.1390 314.0613  1.00272499 77531
DIRECTV 8               
1 28659U 05019A   26155.18308764  .00000013  00000+0  00000+0 0  9993
2 28659   0.0022   2.5841 0003158  76.3808 120.5375  1.00271337 76948
GALAXY 28 (G-28)        
1 28702U 05022A   26155.13193448 -.00000189  00000+0  00000+0 0  9997
2 28702   3.2649  79.0912 0003233   0.1428 193.7437  1.00269229 51842
THAICOM 4               
1 28786U 05028A   26154.94706669 -.00000350  00000+0  00000+0 0  9998
2 28786   0.2111  86.1239 0002136 345.3236 281.4070  1.00271606 52119
ANIK F1R                
1 28868U 05036A   26154.90216264 -.00000064  00000+0  00000+0 0  9993
2 28868   4.2787  76.7428 0004511 359.2588  33.8442  1.00272995 46321
SYRACUSE 3A             
1 28885U 05041B   26155.05322536  .00000140  00000+0  00000+0 0  9999
2 28885   4.6103  75.9958 0003154 333.6236 268.7065  1.00268829 75618
INMARSAT 4-F2           
1 28899U 05044A   26154.94643249 -.00000250  00000+0  00000+0 0  9994
2 28899   5.0778  43.7191 0003276  29.7378 303.1482  1.00270607 75381
METEOSAT-9 (MSG-2)      
1 28912U 05049B   26154.86114579  .00000133  00000+0  00000+0 0  9994
2 28912   9.3308  54.2974 0002358  37.5703 156.1962  1.00267174  6869
EUTELSAT 174A           
1 28924U 05052A   26155.10048343  .00000020  00000+0  00000+0 0  9999
2 28924   4.1863  76.6862 0006593 357.1637  28.8979  1.00269383 52203
ECHOSTAR 10             
1 28935U 06003A   26155.15044869 -.00000043  00000+0  00000+0 0  9998
2 28935   0.0182 333.5566 0001473  95.9528 127.0644  1.00272258 74332
SPAINSAT                
1 28945U 06007A   26154.38446645 -.00000205  00000+0  00000+0 0  9995
2 28945   0.5272  86.7808 0005107 346.3058 286.9735  1.00271153 74084
JCSAT-5A                
1 29045U 06010A   26155.17683779 -.00000316  00000+0  00000+0 0  9993
2 29045   1.0755  84.3617 0002194   0.7134   3.2628  1.00272890 73640
ASTRA 1KR               
1 29055U 06012A   26155.14103453  .00000131  00000+0  00000+0 0  9993
2 29055   0.4399  83.1948 0003728 349.0765 250.0907  1.00272761 45564
